     2.10           N: GPS NAV DATA                         RINEX VERSION / TYPE
teqc  2013Mar15     gpsops              20140510 00:23:21UTCPGM / RUN BY / DATE
Linux 2.4.21-27.ELsmp|Opteron|gcc -static|Linux x86_64|=+   COMMENT
GLPS                                    MARKER NAME         COMMENT
42005M002                               MARKER NUMBER       COMMENT
-33801.4662 -6377516.5323 -82154.3508                       COMMENT
                                                            COMMENT
This data is provided as a public service by NASA/JPL.      COMMENT
No warranty is expressed or implied regarding suitability   COMMENT
for use.  For further information, contact:                 COMMENT
Dave Stowers, NASA/JPL m/s 238-600                          COMMENT
4800 Oak Grove Drive, Pasadena CA 91109 USA                 COMMENT
                                                            END OF HEADER
25 14  5  9 10  0  0.0 2.351263538003D-05 6.821210263297D-13 0.000000000000D+00
    7.900000000000D+01 1.950000000000D+01 3.921949079207D-09-2.444721922995D+00
    1.065433025360D-06 3.567454870790D-03 8.493661880493D-06 5.153616489410D+03
    4.680000000000D+05-8.940696716309D-08 2.859684906246D+00 3.166496753693D-08
    9.763707620127D-01 2.255312500000D+02 6.628278632467D-01-7.735679364953D-09
    2.875119760278D-10 0.000000000000D+00 1.791000000000D+03 0.000000000000D+00
    2.000000000000D+00 0.000000000000D+00 5.122274160385D-09 7.900000000000D+01
    4.608000000000D+05 4.000000000000D+00
26 14  5  9 10  0  0.0 8.424790576100D-05-1.170974428533D-11 0.000000000000D+00
    5.000000000000D+01 1.046875000000D+01 4.629478550650D-09 2.930941874294D-01
    7.487833499908D-07 2.141124766786D-02 5.066394805908D-06 5.153688245773D+03
    4.680000000000D+05-2.682209014893D-07 8.655573200395D-01 6.891787052155D-08
    9.752382951838D-01 2.915312500000D+02 1.281845193586D+00-8.583214668200D-09
   -2.525105180766D-10 0.000000000000D+00 1.791000000000D+03 0.000000000000D+00
    2.000000000000D+00 0.000000000000D+00-6.053596735001D-09 5.000000000000D+01
    4.608000000000D+05 4.000000000000D+00
29 14  5  9 10  0  0.0 5.312925204635D-04 2.728484105319D-12 0.000000000000D+00
    1.170000000000D+02-2.312500000000D+01 4.494115769389D-09-1.992308397836D+00
   -1.085922122002D-06 1.620309427381D-03 5.336478352547D-06 5.153707853317D+03
    4.680000000000D+05-2.421438694000D-08-2.322006788103D+00 1.303851604462D-08
    9.691673914263D-01 2.811875000000D+02-8.853588510470D-01-8.148553705684D-09
    1.653640309328D-10 0.000000000000D+00 1.791000000000D+03 0.000000000000D+00
    2.000000000000D+00 0.000000000000D+00-9.778887033463D-09 1.170000000000D+02
    4.608000000000D+05 4.000000000000D+00
22 14  5  9 10  0  0.0 2.328855916858D-04 3.069544618484D-12 0.000000000000D+00
    6.200000000000D+01 5.875000000000D+01 5.407010937995D-09 2.562427458772D+00
    2.980232238770D-06 7.162548718043D-03 9.190291166306D-06 5.153730901718D+03
    4.680000000000D+05 5.401670932770D-08-2.858958814653D-01-8.940696716309D-08
    9.239706646412D-01 1.834062500000D+02-2.059286605530D+00-8.327489730516D-09
    1.889364413897D-10 0.000000000000D+00 1.791000000000D+03 0.000000000000D+00
    2.000000000000D+00 0.000000000000D+00-1.722946763039D-08 6.200000000000D+01
    4.614300000000D+05 4.000000000000D+00
14 14  5  9 10  0  0.0 1.744786277413D-04-3.410605131648D-12 0.000000000000D+00
    1.150000000000D+02 1.359375000000D+01 4.614477925813D-09 1.444010440945D+00
    5.979090929031D-07 7.449913886376D-03 5.170702934265D-06 5.153653303146D+03
    4.680000000000D+05-2.104789018631D-07 8.425007685102D-01-4.284083843231D-08
    9.704312590200D-01 2.885625000000D+02-2.000922120929D+00-8.281773540539D-09
   -1.967939115420D-10 0.000000000000D+00 1.791000000000D+03 0.000000000000D+00
    2.800000000000D+00 0.000000000000D+00-9.313225746155D-09 1.150000000000D+02
    4.638000000000D+05 4.000000000000D+00
21 14  5  9 10  0  0.0-3.600488416851D-04-2.160049916711D-12 0.000000000000D+00
    1.900000000000D+01-4.100000000000D+01 5.115927384625D-09-2.192619705172D+00
   -2.356246113777D-06 2.147289982531D-02 8.320435881615D-06 5.153762928009D+03
    4.680000000000D+05 2.868473529816D-07-1.333129306827D+00 1.862645149231D-08
    9.319950541121D-01 1.939062500000D+02-2.028553116351D+00-8.028548706994D-09
    8.714648714384D-11 0.000000000000D+00 1.791000000000D+03 0.000000000000D+00
    2.000000000000D+00 0.000000000000D+00-1.117587089539D-08 1.900000000000D+01
    4.646700000000D+05 4.000000000000D+00
12 14  5  9  9 59 44.0 2.037850208580D-04 2.501110429876D-12 0.000000000000D+00
    1.400000000000D+01 1.968750000000D+01 3.711583173766D-09-1.675986061512D+00
    1.048669219017D-06 5.117555847391D-03 8.428469300270D-06 5.153631446838D+03
    4.679840000000D+05-4.656612873077D-08 2.901886552571D+00-1.117587089539D-07
    9.876709000917D-01 2.323125000000D+02 4.185166965346D-01-7.643175511796D-09
    2.825117677491D-10 0.000000000000D+00 1.791000000000D+03 0.000000000000D+00
    2.000000000000D+00 0.000000000000D+00-1.210719347000D-08 1.400000000000D+01
    4.665900000000D+05 4.000000000000D+00
 2 14  5  9 12  0  0.0 4.943311214447D-04 2.160049916711D-12 0.000000000000D+00
    3.600000000000D+01-4.659375000000D+01 5.096283709244D-09 1.052651539962D+00
   -2.494081854820D-06 1.351330254693D-02 8.828938007355D-06 5.153601970673D+03
    4.752000000000D+05-1.825392246246D-07-1.350657923958D+00 8.754432201385D-08
    9.390532052096D-01 1.985937500000D+02-2.429379557936D+00-8.426422422888D-09
   -3.014411276615D-10 0.000000000000D+00 1.791000000000D+03 0.000000000000D+00
    2.000000000000D+00 0.000000000000D+00-2.048909664154D-08 3.600000000000D+01
    4.680000000000D+05 4.000000000000D+00
12 14  5  9 11 59 44.0 2.038027159870D-04 2.501110429876D-12 0.000000000000D+00
    1.500000000000D+01 1.821875000000D+01 3.807658604264D-09-6.257397739218D-01
    8.866190910339D-07 5.117411026731D-03 8.558854460716D-06 5.153631729126D+03
    4.751840000000D+05 9.685754776001D-08 2.901831757512D+00 3.352761268616D-08
    9.876719636331D-01 2.290937500000D+02 4.184708618482D-01-7.786038605475D-09
    1.660783464012D-10 0.000000000000D+00 1.791000000000D+03 0.000000000000D+00
    2.000000000000D+00 0.000000000000D+00-1.210719347000D-08 1.500000000000D+01
    4.680000000000D+05 4.000000000000D+00
14 14  5  9 12  0  0.0 1.744544133544D-04-3.410605131648D-12 0.000000000000D+00
    1.160000000000D+02 1.437500000000D+01 4.567690262634D-09 2.494125558912D+00
    6.202608346939D-07 7.449591299519D-03 4.583969712257D-06 5.153654556274D+03
    4.752000000000D+05-1.303851604462D-08 8.424418231520D-01-1.322478055954D-07
    9.704308420884D-01 2.933125000000D+02-2.000843628060D+00-8.084265313528D-09
   -1.746501320219D-10 0.000000000000D+00 1.791000000000D+03 0.000000000000D+00
    2.800000000000D+00 0.000000000000D+00-9.313225746155D-09 1.160000000000D+02
    4.680000000000D+05 4.000000000000D+00
15 14  5  9 12  0  0.0-1.784875057638D-04-2.160049916711D-12 0.000000000000D+00
    7.500000000000D+01 2.843750000000D+01 5.533801933634D-09 1.883994986308D+00
    1.614913344383D-06 6.254215841182D-03 4.306435585022D-06 5.153683921814D+03
    4.752000000000D+05-5.960464477539D-08 7.310192923106D-01 1.825392246246D-07
    9.370847114196D-01 2.859687500000D+02 2.744542323947D-01-8.679647256433D-09
   -4.928776731906D-11 0.000000000000D+00 1.791000000000D+03 0.000000000000D+00
    2.000000000000D+00 0.000000000000D+00-1.024454832077D-08 7.500000000000D+01
    4.680000000000D+05 4.000000000000D+00
18 14  5  9 12  0  0.0 3.181677311659D-04 2.273736754432D-12 0.000000000000D+00
    7.200000000000D+01 5.612500000000D+01 5.303078037343D-09-2.113512954241D+00
    2.834945917130D-06 1.520624628756D-02 8.555129170418D-06 5.153694168091D+03
    4.752000000000D+05 1.955777406693D-07-2.878756616682D-01 2.048909664154D-08
    9.261977292017D-01 1.913750000000D+02-2.041219255650D+00-8.190341160585D-09
    3.403713206889D-10 0.000000000000D+00 1.791000000000D+03 0.000000000000D+00
    2.000000000000D+00 0.000000000000D+00-1.117587089539D-08 7.200000000000D+01
    4.680000000000D+05 4.000000000000D+00
21 14  5  9 12  0  0.0-3.600646741688D-04-2.160049916711D-12 0.000000000000D+00
    2.000000000000D+01-3.190625000000D+01 5.208074080047D-09-1.142522664484D+00
   -1.212581992149D-06 2.147364732809D-02 8.350238204002D-06 5.153761348724D+03
    4.752000000000D+05 2.160668373108D-07-1.333186903374D+00 5.140900611877D-07
    9.319934551426D-01 2.008437500000D+02-2.028518819700D+00-8.457852303497D-09
   -8.928943354902D-11 0.000000000000D+00 1.791000000000D+03 0.000000000000D+00
    2.000000000000D+00 0.000000000000D+00-1.117587089539D-08 2.000000000000D+01
    4.680000000000D+05 4.000000000000D+00
22 14  5  9 12  0  0.0 2.329074777663D-04 3.069544618484D-12 0.000000000000D+00
    6.300000000000D+01 5.487500000000D+01 5.403796518387D-09-2.670615189545D+00
    2.663582563400D-06 7.163282250986D-03 8.899718523026D-06 5.153729541779D+03
    4.752000000000D+05 1.303851604462D-07-2.859561595418D-01-2.235174179077D-08
    9.239720924492D-01 1.873125000000D+02-2.059276501155D+00-8.347490563631D-09
    2.467959943295D-10 0.000000000000D+00 1.791000000000D+03 0.000000000000D+00
    2.000000000000D+00 0.000000000000D+00-1.722946763039D-08 6.300000000000D+01
    4.680000000000D+05 4.000000000000D+00
24 14  5  9 12  0  0.0-2.808589488268D-05-5.684341886081D-13 0.000000000000D+00
    1.070000000000D+02-4.309375000000D+01 4.656979696183D-09 6.282588369309D-01
   -2.142041921616D-06 2.074689487927D-03 7.491558790207D-06 5.153735527039D+03
    4.752000000000D+05 9.313225746155D-09 1.804731115049D+00 2.235174179077D-08
    9.567109848412D-01 2.291250000000D+02 3.463800846237D-01-8.207841889560D-09
   -3.775157250453D-10 0.000000000000D+00 1.791000000000D+03 0.000000000000D+00
    2.800000000000D+00 0.000000000000D+00 2.793967723846D-09 1.070000000000D+02
    4.680000000000D+05 4.000000000000D+00
